TRANSIT 16              
1 02807U 67048A   09122.24231774  .00000074  00000-0  10000-3 0  2253
2 02807  89.6522 205.2471 0021593  17.0612 343.1260 13.49711024 64426
TRANSIT 17              
1 02965U 67092A   09121.91122552  .00000078  00000-0  10000-3 0  5148
2 02965  89.2610 126.3205 0046206 202.2466 157.6682 13.52419402 50864
TRANSIT 18              
1 03133U 68012A   09121.92377081  .00000076  00000-0  10000-3 0  2649
2 03133  89.9749 286.8078 0077350  96.9836 264.0114 13.50523622 26319
NNSS 19                 
1 04507U 70067A   09122.48234674  .00000030  00000-0  29897-4 0  9181
2 04507  89.8626 312.3444 0171157 215.6567 143.3061 13.50133530903512
NNSS O-20               
1 06909U 73081A   09122.19146117  .00000049  00000-0  41783-4 0  3485
2 06909  89.8610 358.7394 0156479 245.4853 112.9927 13.69747424972769
TRANSAT                 
1 10457U 77106A   09121.84857420  .00000072  00000-0  10000-3 0  8430
2 10457  89.6712 250.1890 0027350  45.0750 315.2612 13.48260131549721
NOVA I                  
1 12458U 81044A   09122.05252516  .00000050  00000-0  10000-3 0  7321
2 12458  90.0914 115.4059 0012548 270.5752  89.3907 13.22697957349742
NOVA 3                  
1 15362U 84110A   09122.16846745  .00000051  00000-0  10000-3 0  9446
2 15362  89.9782  50.8317 0032821 126.8525 233.5628 13.22474844185025
OSCAR 30                
1 15935U 85066A   09121.74544117  .00000027  00000-0  36692-4 0  3830
2 15935  90.0548  22.5364 0167863 276.9193  81.2877 13.35257232154502
OSCAR 24                
1 15936U 85066B   09122.74287283  .00000100  00000-0  16932-3 0  7010
2 15936  90.0429  19.6685 0168226 276.6267  81.5757 13.35156832156761
POLAR BEAR              
1 17070U 86088A   09122.87388596  .00000019  00000-0  73445-5 0  7528
2 17070  89.5427 111.7333 0040653  46.9143 313.5413 13.74334671126419
OSCAR 27                
1 18361U 87080A   09122.46486083  .00000067  00000-0  10000-3 0  3761
2 18361  90.3279 231.8956 0104708 311.7074  47.5151 13.44069989 60482
OSCAR 29                
1 18362U 87080B   09122.05611673  .00000067  00000-0  10000-3 0  6327
2 18362  90.3288 231.9969 0106599 323.7667  35.6282 13.43696618 60206
OSCAR 23                
1 19070U 88033A   09121.41489612  .00000059  00000-0  10000-3 0  5722
2 19070  90.2505 183.7529 0192525 129.7145 232.1181 13.27098667 17632
OSCAR 32                
1 19071U 88033B   09122.24294409  .00000060  00000-0  10000-3 0  2373
2 19071  90.2512 183.8558 0190616 119.5828 242.4451 13.27307655 17902
NOVA 11                 
1 19223U 88052A   09122.47465808  .00000051  00000-0  10000-3 0  4159
2 19223  90.0238  90.5156 0030669 167.4247 192.7664 13.22410423  7602
OSCAR 25                
1 19419U 88074A   09122.02209519  .00000066  00000-0  10000-3 0  6244
2 19419  89.9181  31.8023 0094678 268.0540  90.9759 13.41802569 12649
OSCAR 31                
1 19420U 88074B   09122.79698873  .00000066  00000-0  10000-3 0  2982
2 19420  89.9179  31.7299 0092724 260.3359  98.7299 13.41857763 12848
